{"type": "FeatureCollection", "features": [ {"type": "Feature", "properties": {"norad_id": 60453, "name": "LEGION 4", "group": "resource", "lat": -20.88681078800545, "lon": -128.71089363280683, "alt_km": 523.2434637771639, "timestamp": "2025-12-15T04:01:20.100729+00:00", "meta": {"OBJECT_NAME": "LEGION 4", "OBJECT_ID": "2024-146B", "EPOCH": "2025-12-14T06:32:14.413056", "MEAN_MOTION": 15.15846404, "ECCENTRICITY": 0.0009352, "INCLINATION": 45.0397, "RA_OF_ASC_NODE": 33.6715, "ARG_OF_PERICENTER": 318.9925, "MEAN_ANOMALY": 41.025, "EPHEMERIS_TYPE": 0, "CLASSIFICATION_TYPE": "U", "NORAD_CAT_ID": 60453, "ELEMENT_SET_NO": 999, "REV_AT_EPOCH": 7281, "BSTAR": 0.00033056386, "MEAN_MOTION_DOT": 6.175e-05, "MEAN_MOTION_DDOT": 0}, "tle": {"line1": "1 60453U 24146B   25348.27238904  .00006175  00000+0  33056-3 0  9990", "line2": "2 60453  45.0397  33.6715 0009352 318.9925  41.0250 15.15846404 72817"}}, "geometry": {"type": "Point", "coordinates": [-128.71089363280683, -20.88681078800545]}}, {"type": "Feature", "properties": {"norad_id": 60989, "name": "SENTINEL-2C", "group": "resource", "lat": -78.39836539444694, "lon": -165.63837632606342, "alt_km": 797.1610162642992, "timestamp": "2025-12-15T04:01:20.100740+00:00", "meta": {"OBJECT_NAME": "SENTINEL-2C", "OBJECT_ID": "2024-157A", "EPOCH": "2025-12-14T04:58:57.448704", "MEAN_MOTION": 14.30818173, "ECCENTRICITY": 0.00012042, "INCLINATION": 98.5682, "RA_OF_ASC_NODE": 60.6691, "ARG_OF_PERICENTER": 97.3326, "MEAN_ANOMALY": 262.7994, "EPHEMERIS_TYPE": 0, "CLASSIFICATION_TYPE": "U", "NORAD_CAT_ID": 60989, "ELEMENT_SET_NO": 999, "REV_AT_EPOCH": 6653, "BSTAR": 8.5816292e-05, "MEAN_MOTION_DOT": 1.81e-06, "MEAN_MOTION_DDOT": 0}, "tle": {"line1": "1 60989U 24157A   25348.20760936  .00000181  00000+0  85816-4 0  9997", "line2": "2 60989  98.5682  60.6691 0001204  97.3326 262.7994 14.30818173 66532"}}, "geometry": {"type": "Point", "coordinates": [-165.63837632606342, -78.39836539444694]}}, {"type": "Feature", "properties": {"norad_id": 61735, "name": "IONOSFERA-M 1", "group": "resource", "lat": 78.2804645772962, "lon": 86.86383449339694, "alt_km": 808.7457760949683, "timestamp": "2025-12-15T04:01:20.100752+00:00", "meta": {"OBJECT_NAME": "IONOSFERA-M 1", "OBJECT_ID": "2024-199A", "EPOCH": "2025-12-14T07:18:35.358624", "MEAN_MOTION": 14.22714392, "ECCENTRICITY": 8.869e-05, "INCLINATION": 98.7403, "RA_OF_ASC_NODE": 218.1408, "ARG_OF_PERICENTER": 19.5825, "MEAN_ANOMALY": 340.5387, "EPHEMERIS_TYPE": 0, "CLASSIFICATION_TYPE": "U", "NORAD_CAT_ID": 61735, "ELEMENT_SET_NO": 999, "REV_AT_EPOCH": 10141, "BSTAR": 5.5121984e-05, "MEAN_MOTION_DOT": 7.9e-07, "MEAN_MOTION_DDOT": 0}, "tle": {"line1": "1 61735U 24199A   25348.30457591  .00000079  00000+0  55122-4 0  9997", "line2": "2 61735  98.7403 218.1408 0000886  19.5825 340.5387 14.22714392101413"}}, "geometry": {"type": "Point", "coordinates": [86.86383449339694, 78.2804645772962]}}, {"type": "Feature", "properties": {"norad_id": 61736, "name": "IONOSFERA-M 2", "group": "resource", "lat": -76.39073349680784, "lon": -101.63806573425725, "alt_km": 824.6908357382181, "timestamp": "2025-12-15T04:01:20.100763+00:00", "meta": {"OBJECT_NAME": "IONOSFERA-M 2", "OBJECT_ID": "2024-199B", "EPOCH": "2025-12-14T08:08:28.610592", "MEAN_MOTION": 14.22716615, "ECCENTRICITY": 0.00016842, "INCLINATION": 98.7402, "RA_OF_ASC_NODE": 218.0877, "ARG_OF_PERICENTER": 108.1915, "MEAN_ANOMALY": 251.9447, "EPHEMERIS_TYPE": 0, "CLASSIFICATION_TYPE": "U", "NORAD_CAT_ID": 61736, "ELEMENT_SET_NO": 999, "REV_AT_EPOCH": 10454, "BSTAR": 5.8247423e-05, "MEAN_MOTION_DOT": 8.6e-07, "MEAN_MOTION_DDOT": 0}, "tle": {"line1": "1 61736U 24199B   25348.33922003  .00000086  00000+0  58247-4 0  9995", "line2": "2 61736  98.7402 218.0877 0001684 108.1915 251.9447 14.22716615104543"}}, "geometry": {"type": "Point", "coordinates": [-101.63806573425725, -76.39073349680784]}}, {"type": "Feature", "properties": {"norad_id": 63772, "name": "BIOMASS", "group": "resource", "lat": 35.58615320509328, "lon": -0.03164552519007686, "alt_km": 666.1987917457818, "timestamp": "2025-12-15T04:01:20.100773+00:00", "meta": {"OBJECT_NAME": "BIOMASS", "OBJECT_ID": "2025-090A", "EPOCH": "2025-12-14T02:49:23.983680", "MEAN_MOTION": 14.67544972, "ECCENTRICITY": 0.00011481, "INCLINATION": 98.07, "RA_OF_ASC_NODE": 173.1071, "ARG_OF_PERICENTER": 78.5565, "MEAN_ANOMALY": 281.5769, "EPHEMERIS_TYPE": 0, "CLASSIFICATION_TYPE": "U", "NORAD_CAT_ID": 63772, "ELEMENT_SET_NO": 999, "REV_AT_EPOCH": 3354, "BSTAR": 0.00033823395, "MEAN_MOTION_DOT": 1.871e-05, "MEAN_MOTION_DDOT": 0}, "tle": {"line1": "1 63772U 25090A   25348.11763870  .00001871  00000+0  33823-3 0  9994", "line2": "2 63772  98.0700 173.1071 0001148  78.5565 281.5769 14.67544972 33543"}}, "geometry": {"type": "Point", "coordinates": [-0.03164552519007686, 35.58615320509328]}}, {"type": "Feature", "properties": {"norad_id": 64694, "name": "GOSAT-GW (IBUKI GW)", "group": "resource", "lat": -6.515912041983896, "lon": -74.43834782053287, "alt_km": 672.6292936238506, "timestamp": "2025-12-15T04:01:20.100783+00:00", "meta": {"OBJECT_NAME": "GOSAT-GW (IBUKI GW)", "OBJECT_ID": "2025-141A", "EPOCH": "2025-12-14T08:24:57.640896", "MEAN_MOTION": 14.67561879, "ECCENTRICITY": 0.00014688, "INCLINATION": 98.0426, "RA_OF_ASC_NODE": 283.8343, "ARG_OF_PERICENTER": 84.2296, "MEAN_ANOMALY": 275.9076, "EPHEMERIS_TYPE": 0, "CLASSIFICATION_TYPE": "U", "NORAD_CAT_ID": 64694, "ELEMENT_SET_NO": 999, "REV_AT_EPOCH": 2473, "BSTAR": 0.00025818184, "MEAN_MOTION_DOT": 1.417e-05, "MEAN_MOTION_DDOT": 0}, "tle": {"line1": "1 64694U 25141A   25348.35066714  .00001417  00000+0  25818-3 0  9995", "line2": "2 64694  98.0426 283.8343 0001468  84.2296 275.9076 14.67561879 24737"}}, "geometry": {"type": "Point", "coordinates": [-74.43834782053287, -6.515912041983896]}}, {"type": "Feature", "properties": {"norad_id": 64876, "name": "IONOSFERA-M 3", "group": "resource", "lat": -45.857844040972026, "lon": -40.08728780763577, "alt_km": 827.5197832772647, "timestamp": "2025-12-15T04:01:20.100794+00:00", "meta": {"OBJECT_NAME": "IONOSFERA-M 3", "OBJECT_ID": "2025-155A", "EPOCH": "2025-12-14T07:58:05.275200", "MEAN_MOTION": 14.21441508, "ECCENTRICITY": 0.00022011, "INCLINATION": 98.5784, "RA_OF_ASC_NODE": 310.153, "ARG_OF_PERICENTER": 57.6553, "MEAN_ANOMALY": 302.4837, "EPHEMERIS_TYPE": 0, "CLASSIFICATION_TYPE": "U", "NORAD_CAT_ID": 64876, "ELEMENT_SET_NO": 999, "REV_AT_EPOCH": 2014, "BSTAR": 7.4490219e-05, "MEAN_MOTION_DOT": 1.2e-06, "MEAN_MOTION_DDOT": 0}, "tle": {"line1": "1 64876U 25155A   25348.33200550  .00000120  00000+0  74490-4 0  9999", "line2": "2 64876  98.5784 310.1530 0002201  57.6553 302.4837 14.21441508 20147"}}, "geometry": {"type": "Point", "coordinates": [-40.08728780763577, -45.857844040972026]}}, {"type": "Feature", "properties": {"norad_id": 64877, "name": "IONOSFERA-M 4", "group": "resource", "lat": 45.00603477341046, "lon": 139.56789895413652, "alt_km": 816.280544373476, "timestamp": "2025-12-15T04:01:20.100804+00:00", "meta": {"OBJECT_NAME": "IONOSFERA-M 4", "OBJECT_ID": "2025-155B", "EPOCH": "2025-12-14T08:48:34.875648", "MEAN_MOTION": 14.21442676, "ECCENTRICITY": 0.00015745, "INCLINATION": 98.5783, "RA_OF_ASC_NODE": 310.1066, "ARG_OF_PERICENTER": 61.8925, "MEAN_ANOMALY": 298.2412, "EPHEMERIS_TYPE": 0, "CLASSIFICATION_TYPE": "U", "NORAD_CAT_ID": 64877, "ELEMENT_SET_NO": 999, "REV_AT_EPOCH": 2014, "BSTAR": 7.7210408e-05, "MEAN_MOTION_DOT": 1.26e-06, "MEAN_MOTION_DDOT": 0}, "tle": {"line1": "1 64877U 25155B   25348.36707032  .00000126  00000+0  77210-4 0  9999", "line2": "2 64877  98.5783 310.1066 0001574  61.8925 298.2412 14.21442676 20141"}}, "geometry": {"type": "Point", "coordinates": [139.56789895413652, 45.00603477341046]}}, {"type": "Feature", "properties": {"norad_id": 64899, "name": "MICROCARB", "group": "resource", "lat": 10.128994223188062, "lon": 63.03386472698979, "alt_km": 663.340791198063, "timestamp": "2025-12-15T04:01:20.100814+00:00", "meta": {"OBJECT_NAME": "MICROCARB", "OBJECT_ID": "2025-156A", "EPOCH": "2025-12-14T05:08:12.687936", "MEAN_MOTION": 14.72060033, "ECCENTRICITY": 0.00172225, "INCLINATION": 98.0025, "RA_OF_ASC_NODE": 63.5358, "ARG_OF_PERICENTER": 140.2457, "MEAN_ANOMALY": 220.0016, "EPHEMERIS_TYPE": 0, "CLASSIFICATION_TYPE": "U", "NORAD_CAT_ID": 64899, "ELEMENT_SET_NO": 999, "REV_AT_EPOCH": 2075, "BSTAR": 0.00016488559, "MEAN_MOTION_DOT": 9.89e-06, "MEAN_MOTION_DDOT": 0}, "tle": {"line1": "1 64899U 25156A   25348.21403574  .00000989  00000+0  16489-3 0  9999", "line2": "2 64899  98.0025  63.5358 0017222 140.2457 220.0016 14.72060033 20750"}}, "geometry": {"type": "Point", "coordinates": [63.03386472698979, 10.128994223188062]}}, {"type": "Feature", "properties": {"norad_id": 64900, "name": "CO3D 3", "group": "resource", "lat": 66.70073032289238, "lon": -96.8495870991111, "alt_km": 497.8533849762698, "timestamp": "2025-12-15T04:01:20.100824+00:00", "meta": {"OBJECT_NAME": "CO3D 3", "OBJECT_ID": "2025-156B", "EPOCH": "2025-12-13T16:46:35.865408", "MEAN_MOTION": 15.2020033, "ECCENTRICITY": 0.00013843, "INCLINATION": 97.4344, "RA_OF_ASC_NODE": 64.0523, "ARG_OF_PERICENTER": 93.9049, "MEAN_ANOMALY": 266.2345, "EPHEMERIS_TYPE": 0, "CLASSIFICATION_TYPE": "U", "NORAD_CAT_ID": 64900, "ELEMENT_SET_NO": 999, "REV_AT_EPOCH": 2135, "BSTAR": 0.00015817929, "MEAN_MOTION_DOT": 3.358e-05, "MEAN_MOTION_DDOT": 0}, "tle": {"line1": "1 64900U 25156B   25347.69902622  .00003358  00000+0  15818-3 0  9999", "line2": "2 64900  97.4344  64.0523 0001384  93.9049 266.2345 15.20200330 21357"}}, "geometry": {"type": "Point", "coordinates": [-96.8495870991111, 66.70073032289238]}}]}